NORAD_CAT_ID,OBJECT_NAME,OBJECT_TYPE,EPOCH,MEAN_MOTION,ECCENTRICITY,INCLINATION,RA_OF_ASC_NODE,ARG_OF_PERICENTER,MEAN_ANOMALY,BSTAR,MEAN_MOTION_DOT,MEAN_MOTION_DDOT,TLE_LINE0,TLE_LINE1,TLE_LINE2,SEMIMAJOR_AXIS,PERIOD,APOGEE,PERIGEE,DECAYED
53032.0,STARLINK-4115,PAYLOAD,2024-03-10 09:54:32,15.08842775,0.0001391,53.2168,117.9693,90.4706,269.6446,5.0396e-05,5.14e-06,0.0,0 STARLINK-4115,1 53032U 22076AY  24070.41287539  .00000514  00000-0  50396-4 0  9999,2 53032  53.2168 117.9693 0001391  90.4706 269.6446 15.08842775 92898,6917.872,95.437,540.699,538.775,0.0
53032.0,STARLINK-4115,PAYLOAD,2024-03-11 03:23:47,15.08836502,0.000147,53.2168,114.7008,93.1371,266.9789,2.657e-05,1.35e-06,0.0,0 STARLINK-4115,1 53032U 22076AY  24071.14152057  .00000135  00000-0  26570-4 0  9992,2 53032  53.2168 114.7008 0001470  93.1371 266.9789 15.08836502 93475,6917.891,95.438,540.773,538.739,0.0
53032.0,STARLINK-4115,PAYLOAD,2024-03-11 12:56:05,15.08844066,0.0001457,53.2157,112.9134,94.4582,265.6576,5.2289e-05,5.44e-06,0.0,0 STARLINK-4115,1 53032U 22076AY  24071.53895393  .00000544  00000-0  52289-4 0  9992,2 53032  53.2157 112.9134 0001457  94.4582 265.6576 15.08844066 93537,6917.868,95.437,540.741,538.725,0.0
53032.0,STARLINK-4115,PAYLOAD,2024-03-12 03:14:34,15.08835305,0.0001654,53.216,110.2382,89.6239,270.4943,1.2799e-05,-8.4e-07,0.0,0 STARLINK-4115,1 53032U 22076AY  24072.13512352 -.00000084  00000-0  12799-4 0  9992,2 53032  53.2160 110.2382 0001654  89.6239 270.4943 15.08835305 93629,6917.895,95.438,540.904,538.616,0.0
53032.0,STARLINK-4115,PAYLOAD,2024-03-12 19:08:26,15.08835432,0.0001516,53.2174,107.2659,95.0219,265.0947,3.9892e-05,3.47e-06,0.0,0 STARLINK-4115,1 53032U 22076AY  24072.79752438  .00000347  00000-0  39892-4 0  9999,2 53032  53.2174 107.2659 0001516  95.0219 265.0947 15.08835432 93257,6917.894,95.438,540.808,538.711,0.0
53032.0,STARLINK-4115,PAYLOAD,2024-03-13 09:26:53,15.08844635,0.0001431,53.217,104.5892,95.9151,264.2005,8.791e-05,1.112e-05,0.0,0 STARLINK-4115,1 53032U 22076AY  24073.39367773  .00001112  00000-0  87910-4 0  9995,2 53032  53.2170 104.5892 0001431  95.9151 264.2005 15.08844635 93815,6917.866,95.437,540.721,538.741,0.0
53032.0,STARLINK-4115,PAYLOAD,2024-03-13 18:59:12,15.08846728,0.0001452,53.2171,102.8046,88.7719,271.344,5.9285e-05,6.56e-06,0.0,0 STARLINK-4115,1 53032U 22076AY  24073.79111710  .00000656  00000-0  59285-4 0  9993,2 53032  53.2171 102.8046 0001452  88.7719 271.3440 15.08846728 93403,6917.86,95.437,540.729,538.72,0.0
53032.0,STARLINK-4115,PAYLOAD,2024-03-14 06:06:55,15.08832386,0.000151,53.2167,100.7225,83.5731,276.5433,7.8581e-05,9.63e-06,0.0,0 STARLINK-4115,1 53032U 22076AY  24074.25480745  .00000963  00000-0  78581-4 0  9993,2 53032  53.2167 100.7225 0001510  83.5731 276.5433 15.08832386 93477,6917.904,95.438,540.813,538.724,0.0
53032.0,STARLINK-4115,PAYLOAD,2024-03-14 10:53:04,15.08839246,0.0001566,53.217,99.8299,83.566,276.551,8.4988e-05,1.065e-05,0.0,0 STARLINK-4115,1 53032U 22076AY  24074.45352327  .00001065  00000-0  84988-4 0  9991,2 53032  53.2170  99.8299 0001566  83.5660 276.5510 15.08839246 93975,6917.883,95.438,540.831,538.664,0.0
53032.0,STARLINK-4115,PAYLOAD,2024-03-15 09:08:28,15.08843266,0.0001556,53.2166,95.6667,87.9449,272.1721,9.173e-06,-1.42e-06,0.0,0 STARLINK-4115,1 53032U 22076AY  24075.38088330 -.00000142  00000-0  91730-5 0  9994,2 53032  53.2166  95.6667 0001556  87.9449 272.1721 15.08843266 93642,6917.87,95.437,540.812,538.659,0.0
53032.0,STARLINK-4115,PAYLOAD,2024-03-16 01:02:19,15.08832075,0.0001663,53.2166,92.6928,85.0121,275.1061,0.00016915,2.404e-05,0.0,0 STARLINK-4115,1 53032U 22076AY  24076.04328624  .00002404  00000-0  16915-3 0  9993,2 53032  53.2166  92.6928 0001663  85.0121 275.1061 15.08832075 94214,6917.905,95.438,540.92,538.619,0.0
53032.0,STARLINK-4115,PAYLOAD,2024-03-16 07:23:52,15.08840679,0.0001637,53.2169,91.5039,82.6145,277.5033,5.2181e-05,5.43e-06,0.0,0 STARLINK-4115,1 53032U 22076AY  24076.30824410  .00000543  00000-0  52181-4 0  9994,2 53032  53.2169  91.5039 0001637  82.6145 277.5033 15.08840679 93783,6917.878,95.438,540.876,538.611,0.0
53032.0,STARLINK-4115,PAYLOAD,2024-03-17 04:03:52,15.08841348,0.0001524,53.2168,87.6379,92.8368,267.2798,5.9526e-05,6.6e-06,0.0,0 STARLINK-4115,1 53032U 22076AY  24077.16936323  .00000660  00000-0  59526-4 0  9996,2 53032  53.2168  87.6379 0001524  92.8368 267.2798 15.08841348 94385,6917.876,95.437,540.796,538.687,0.0
53032.0,STARLINK-4115,PAYLOAD,2024-03-17 07:14:39,15.08841776,0.0001519,53.2168,87.0432,92.9478,267.1688,6.051e-05,6.75e-06,0.0,0 STARLINK-4115,1 53032U 22076AY  24077.30184283  .00000675  00000-0  60510-4 0  9993,2 53032  53.2168  87.0432 0001519  92.9478 267.1688 15.08841776 93938,6917.875,95.437,540.791,538.689,0.0
53032.0,STARLINK-4115,PAYLOAD,2024-03-18 03:54:40,15.08838107,0.0001597,53.2176,83.1787,100.4282,259.689,3.8762e-05,3.29e-06,0.0,0 STARLINK-4115,1 53032U 22076AY  24078.16296581  .00000329  00000-0  38762-4 0  9993,2 53032  53.2176  83.1787 0001597 100.4282 259.6890 15.08838107 94061,6917.886,95.438,540.856,538.646,0.0
53032.0,STARLINK-4115,PAYLOAD,2024-03-19 05:20:50,15.08840904,0.0001649,53.218,78.422,107.8702,252.2471,6.8758e-05,8.06e-06,0.0,0 STARLINK-4115,1 53032U 22076AY  24079.22280502  .00000806  00000-0  68758-4 0  9995,2 53032  53.2180  78.4220 0001649 107.8702 252.2471 15.08840904 94692,6917.878,95.437,540.883,538.602,0.0
53032.0,STARLINK-4115,PAYLOAD,2024-03-20 05:11:37,15.08841568,0.0001597,53.218,73.9628,108.3328,251.7838,9.558e-05,1.234e-05,0.0,0 STARLINK-4115,1 53032U 22076AY  24080.21640477  .00001234  00000-0  95580-4 0  9996,2 53032  53.2180  73.9628 0001597 108.3328 251.7838 15.08841568 94379,6917.876,95.437,540.845,538.636,0.0
53032.0,STARLINK-4115,PAYLOAD,2024-03-21 05:02:24,15.08840514,0.0001545,53.2173,69.4968,105.8558,254.2604,3.014e-05,1.92e-06,0.0,0 STARLINK-4115,1 53032U 22076AY  24081.21000842  .00000192  00000-0  30140-4 0  9996,2 53032  53.2173  69.4968 0001545 105.8558 254.2604 15.08840514 94995,6917.879,95.438,540.813,538.675,0.0
53032.0,STARLINK-4115,PAYLOAD,2024-03-21 08:13:10,15.08844829,0.0001502,53.2173,68.8981,99.5605,260.5557,5.9044e-05,6.52e-06,0.0,0 STARLINK-4115,1 53032U 22076AY  24081.34248457  .00000652  00000-0  59044-4 0  9991,2 53032  53.2173  68.8981 0001502  99.5605 260.5557 15.08844829 94549,6917.866,95.437,540.77,538.692,0.0
53032.0,STARLINK-4115,PAYLOAD,2024-03-22 08:03:57,15.08849957,0.0001529,53.2176,64.4375,97.1963,262.9203,0.00018642,2.681e-05,0.0,0 STARLINK-4115,1 53032U 22076AY  24082.33607913  .00002681  00000-0  18642-3 0  9999,2 53032  53.2176  64.4375 0001529  97.1963 262.9203 15.08849957 95161,6917.85,95.437,540.773,538.657,0.0
53032.0,STARLINK-4115,PAYLOAD,2024-03-22 22:22:27,15.08831854,0.0001286,53.217,61.7644,111.7378,248.3751,-4.1902e-05,-9.55e-06,0.0,0 STARLINK-4115,1 53032U 22076AY  24082.93225800 -.00000955  00000-0 -41902-4 0  9996,2 53032  53.2170  61.7644 0001286 111.7378 248.3751 15.08831854 94787,6917.905,95.438,540.66,538.881,0.0
53032.0,STARLINK-4115,PAYLOAD,2024-03-23 04:43:59,15.08838108,0.0001708,53.2179,60.5756,123.3816,236.734,1.8146e-06,-2.59e-06,0.0,0 STARLINK-4115,1 53032U 22076AY  24083.19721333 -.00000259  00000-0  18146-5 0  9998,2 53032  53.2179  60.5756 0001708 123.3816 236.7340 15.08838108 95293,6917.886,95.438,540.933,538.57,0.0
53032.0,STARLINK-4115,PAYLOAD,2024-03-23 22:13:13,15.08851135,0.0001514,53.2184,57.306,90.676,269.4406,5.1893e-05,5.38e-06,0.0,0 STARLINK-4115,1 53032U 22076AY  24083.92584724  .00000538  00000-0  51893-4 0  9994,2 53032  53.2184  57.3060 0001514  90.6760 269.4406 15.08851135 94931,6917.846,95.437,540.759,538.664,0.0
53032.0,STARLINK-4115,PAYLOAD,2024-03-24 04:34:45,15.08861251,0.000161,53.217,56.1175,95.8234,264.2942,0.00031914,4.798e-05,0.0,0 STARLINK-4115,1 53032U 22076AY  24084.19080194  .00004798  00000-0  31914-3 0  9999,2 53032  53.2170  56.1175 0001610  95.8234 264.2942 15.08861251 95445,6917.815,95.436,540.794,538.567,0.0
53032.0,STARLINK-4115,PAYLOAD,2024-03-24 22:04:00,15.08856242,0.0001692,53.2179,52.8441,102.3731,257.7451,0.00044871,6.864e-05,0.0,0 STARLINK-4115,1 53032U 22076AY  24084.91944791  .00006864  00000-0  44871-3 0  9993,2 53032  53.2179  52.8441 0001692 102.3731 257.7451 15.08856242 95557,6917.831,95.437,540.866,538.525,0.0
53032.0,STARLINK-4115,PAYLOAD,2024-03-25 07:36:18,15.08866299,0.0001281,53.2173,51.0604,83.0392,277.0746,0.00078124,0.00012176,0.0,0 STARLINK-4115,1 53032U 22076AY  24085.31688273  .00012176  00000-0  78124-3 0  9999,2 53032  53.2173  51.0604 0001281  83.0392 277.0746 15.08866299 95145,6917.8,95.436,540.551,538.779,0.0
53032.0,STARLINK-4115,PAYLOAD,2024-03-26 04:16:21,15.08813828,0.0001404,53.2178,47.1944,107.9709,252.1436,3.5701e-05,2.8e-06,0.0,0 STARLINK-4115,1 53032U 22076AY  24086.17802485  .00000280  00000-0  35701-4 0  9995,2 53032  53.2178  47.1944 0001404 107.9709 252.1436 15.08813828 95744,6917.96,95.439,540.797,538.854,0.0
53032.0,STARLINK-4115,PAYLOAD,2024-03-26 13:48:40,15.08821571,0.0001263,53.2183,45.4121,109.6413,250.4716,0.00051929,7.982e-05,0.0,0 STARLINK-4115,1 53032U 22076AY  24086.57547054  .00007982  00000-0  51929-3 0  9992,2 53032  53.2183  45.4121 0001263 109.6413 250.4716 15.08821571 95333,6917.937,95.439,540.675,538.928,0.0
53032.0,STARLINK-4115,PAYLOAD,2024-03-27 04:07:08,15.08867034,0.0001099,53.2179,42.7351,106.9135,253.1978,0.001714,0.00027116,0.0,0 STARLINK-4115,1 53032U 22076AY  24087.17162582  .00027116  00000-0  17140-2 0  9995,2 53032  53.2179  42.7351 0001099 106.9135 253.1978 15.08867034 95896,6917.798,95.436,540.423,538.902,0.0
53032.0,STARLINK-4115,PAYLOAD,2024-03-27 13:39:26,15.08868404,0.0001198,53.2185,40.9507,101.5666,258.546,0.00063497,9.84e-05,0.0,0 STARLINK-4115,1 53032U 22076AY  24087.56906057  .00009840  00000-0  63497-3 0  9992,2 53032  53.2185  40.9507 0001198 101.5666 258.5460 15.08868404 95488,6917.794,95.436,540.487,538.83,0.0
